P/2016 P5 (COIAS),e,7.0388,185.3644,33.6831,4.699432,0.0967467,0.05744562,93.7860,01/14.0/2026,2000,g 13.2,4.0
# From MPEC 2024-H50
C/2016 Q2 (PANSTARRS),h,05/11.0685/2021,109.3124,322.3533,84.5160,1.001775,7.080062,2000,6.0,4.0
# From MPEC 2023-J95
C/2016 Q4 (Kowalski),e,7.2364,271.2778,100.0290,17.04912,0.0140007,0.58204112,40.6690,01/14.0/2026,2000,g  7.0,4.0
# From MPEC 2021-N06
C/2016 R2 (PANSTARRS),e,58.3807,80.4714,33.1769,576.1219,0.0000713,0.99549639,0.0000,05/11.9822/2018,2000,g  7.0,4.0
# From MPEC 2022-K19
P/2016 R4 (Gibbs),e,10.8609,168.2562,174.0693,5.339574,0.0798811,0.47448841,276.8738,01/14.0/2026,2000,g 12.5,4.0
# From MPEC 2021-P47
C/2016 X1 (Lemmon),e,26.4666,256.3072,224.6572,3508,0.0000047,0.99784377,0.0000,05/01.6272/2019,2000,g  6.0,4.0
# From MPC114598
C/2017 AB5 (PANSTARRS),h,02/19.7510/2018,32.4429,42.6221,78.3959,1.000402,9.211673,2000,5.5,4.0
# From MPEC 2022-OB6
C/2017 B3 (LINEAR),e,54.2474,2.2779,284.7132,2760,0.0000068,0.99857581,0.0000,01/29.8037/2019,2000,g  6.0,4.0
# From MPC103847
P/2017 B4 (PANSTARRS),e,20.0584,121.4578,11.0197,4.410520,0.1064068,0.36495152,359.9130,01/05.0/2017,2000,g 14.5,4.0
# From MPEC 2022-OB6
P/2017 D1 (Fuls),e,20.7715,82.1856,8.1321,4.820295,0.0931309,0.43778522,324.4166,01/14.0/2026,2000,g 14.0,4.0
# From MPEC 2022-O08
C/2017 E3 (PANSTARRS),h,06/06.7549/2017,70.6669,220.7641,334.1516,1.004248,5.900924,2000,6.5,4.0
# From MPC114598
C/2017 F2 (PANSTARRS),h,11/26.5260/2017,42.5403,38.6182,134.7841,1.001853,6.900025,2000,7.5,4.0
# From MPC184408
P/2017 FL36 (PANSTARRS),e,15.6876,313.4429,90.5444,2.928087,0.1967108,0.03314018,30.8426,01/14.0/2026,2000,g 14.7,4.0
# From MPC115882
C/2017 K1 (PANSTARRS),e,154.0257,225.6505,4.1491,15052,0.0000005,0.99951742,0.0000,03/12.6337/2018,2000,g  7.0,4.0
# From MPEC 2026-A90
C/2017 K2 (PANSTARRS),e,87.6390,88.2216,236.1536,1259,0.0000221,0.99857031,0.0000,12/18.1050/2022,2000,g  1.5,4.0
# From MPEC 2021-P47
C/2017 K5 (PANSTARRS),h,03/24.8415/2020,82.2800,102.4608,171.8865,1.002456,7.672687,2000,5.0,4.0
# From MPEC 2022-OB6
C/2017 M4 (ATLAS),e,105.6371,65.9913,167.3606,50966,0.0000001,0.99993658,0.0000,01/17.4298/2019,2000,g  6.0,4.0
# From MPC118841
C/2017 M5 (TOTAS),h,05/30.8599/2018,15.8699,216.3092,92.7863,1.002077,6.009326,2000,6.5,4.0
# From MPC114599
P/2017 P1 (PANSTARRS),e,7.6880,221.4703,122.7006,7.919805,0.0442214,0.30857292,122.4403,01/14.0/2026,2000,g 10.0,4.0
# From MPEC 2020-SI8
C/2017 S7 (Lemmon),e,124.2296,262.6507,187.7486,58123,0.0000001,0.99986854,0.0000,05/25.5544/2017,2000,g  7.0,4.0
# From MPEC 2022-OB6
P/2017 S8 (PANSTARRS),e,29.8416,191.4951,254.9490,2.778382,0.2128218,0.39114807,258.7899,01/14.0/2026,2000,g 16.0,4.0
# From MPEC 2024-A43
C/2017 T2 (PANSTARRS),e,57.2687,64.4093,92.7740,1699,0.0000141,0.99905716,0.0000,05/06.5360/2020,2000,g  5.0,4.0
# From MPC115882
P/2017 TW13 (Lemmon),e,44.8911,322.0911,120.0587,7.139009,0.0516710,0.71047565,142.6683,01/14.0/2026,2000,g 15.0,2.0
# From MPEC 2022-K19
P/2017 U3 (PANSTARRS),e,15.9254,165.0483,296.5950,4.918630,0.0903520,0.10093681,222.3967,01/14.0/2026,2000,g 11.0,4.0
# From MPEC 2023-CD7
C/2017 U4 (PANSTARRS),e,158.2031,245.9289,159.2285,11314,0.0000008,0.99931470,0.0000,09/22.3869/2018,2000,g  7.0,4.0
# From MPEC 2023-A50
C/2017 U7 (PANSTARRS),h,09/16.1416/2019,142.6397,276.3214,326.3710,1.002551,6.413856,2000,8.3,2.0
# From MPC114601
P/2017 W3 (Gibbs),e,18.1961,210.0332,327.7884,7.816682,0.0450994,0.50737103,129.7737,01/14.0/2026,2000,g 10.5,4.0
# From MPEC 2024-JU4
C/2018 A6 (Gibbs),e,77.1870,340.4844,264.2378,14.99181,0.0169794,0.79892495,40.4026,01/14.0/2026,2000,g  9.0,4.0
# From MPC114602
P/2018 H2 (PANSTARRS),e,7.4111,67.9863,119.0464,4.415567,0.1062244,0.53976207,314.5275,01/14.0/2026,2000,g 16.6,2.0
# From MPEC 2021-R75
C/2018 KJ3 (Lemmon),e,136.6214,91.6949,217.5054,645.2144,0.0000601,0.99439468,0.0000,09/08.0096/2019,2000,g 12.2,2.0
# From MPEC 2022-YN2
C/2018 N2 (ASASSN),h,11/12.0649/2019,77.4585,24.5474,25.3390,1.002093,3.137186,2000,6.0,4.0
# From MPC114603
P/2018 P4 (PANSTARRS),e,23.0688,353.1618,8.5102,6.697466,0.0568641,0.44859057,149.3593,01/14.0/2026,2000,g 12.0,4.0
# From MPEC 2022-QC6
C/2018 S2 (TESS),e,64.1130,85.1109,290.9807,14.36837,0.0180964,0.61745312,47.5509,01/14.0/2026,2000,g  7.5,4.0
# From MPEC 2023-D54
C/2018 S3 (TESS),e,78.3887,25.0494,263.9007,26861,0.0000002,0.99970151,0.0000,06/24.2285/2016,2000,g  6.0,4.0
# From MPC184408
C/2018 U1 (Lemmon),e,108.3267,75.5063,180.3072,13985,0.0000006,0.99964367,0.0000,11/01.7513/2021,2000,g  5.0,4.0
# From MPC181178
P/2018 VN2 (Leonard),e,18.2553,226.4322,138.9296,4.060637,0.1204517,0.47802980,334.2507,01/14.0/2026,2000,g 15.0,4.0
# From MPEC 2023-M14
A/2018 W3,e,104.8327,251.6774,313.8203,685.1067,0.0000550,0.99375523,0.0000,04/13.1972/2021,2000,g 10.5,2.0
# From MPC114605
P/2018 Y2 (Africano),e,11.6971,297.1085,162.4395,7.459615,0.0483759,0.47994169,124.1237,01/14.0/2026,2000,g 11.5,4.0
# From MPEC 2021-P47
P/2019 A2 (ATLAS),e,14.8770,139.3569,324.0005,5.710232,0.0722310,0.38333387,188.2796,01/14.0/2026,2000,g 10.5,4.0
# From MPEC 2022-M21
P/2019 A3 (PANSTARRS),e,15.3566,31.1795,325.5583,3.143316,0.1768569,0.26820515,120.6797,01/14.0/2026,2000,g 16.0,4.0
# From MPEC 2022-L66
P/2019 A4 (PANSTARRS),e,13.3064,119.3541,343.3381,2.614109,0.2331947,0.08750545,243.8284,01/14.0/2026,2000,g 15.0,4.0
# From MPEC 2021-P47
C/2019 A5 (PANSTARRS),e,67.5549,146.4911,355.8777,21.52801,0.0098673,0.70663885,23.8045,01/14.0/2026,2000,g  9.5,4.0
# From MPC115885
P/2019 B2 (Groeller),e,16.9467,175.5949,0.4828,3.932838,0.1263703,0.35771860,308.7128,01/14.0/2026,2000,g 14.5,4.0
# From MPEC 2024-JU4
C/2019 B3 (PANSTARRS),e,66.6252,358.3976,263.9989,3169,0.0000055,0.99784438,0.0000,01/19.3193/2021,2000,g  5.5,4.0
# From MPEC 2026-A90
C/2019 E3 (ATLAS),e,84.3246,347.1830,280.7244,6333,0.0000020,0.99837154,0.0000,11/15.7768/2023,2000,g  2.5,4.0
# From MPEC 2024-GJ3
C/2019 F1 (ATLAS-Africano),e,54.2741,38.6667,251.2738,50390,0.0000001,0.99992841,0.0000,06/20.7959/2021,2000,g  5.5,4.0
# From MPC114607
P/2019 GG21 (PANSTARRS),e,6.0807,340.5659,208.5881,7.468487,0.0482898,0.47170530,117.8857,01/14.0/2026,2000,g 12.0,4.0
# From MPEC 2024-GJ3
C/2019 K7 (Smith),e,103.4649,308.0477,27.3224,61338,0.0000001,0.99992709,0.0000,06/16.6866/2020,2000,g  6.0,4.0
# From MPEC 2025-W75
P/2019 LD2 (ATLAS),e,11.6675,178.0605,116.0949,5.153545,0.0842452,0.13429328,183.8074,01/14.0/2026,2000,g 12.0,4.0
# From MPC185656
C/2019 L3 (ATLAS),h,01/10.2143/2022,48.3470,290.7098,171.7953,1.003405,3.561362,2000,4.5,4.0
# From MPEC 2025-W75
P/2019 LM4 (Palomar),e,36.4122,72.8749,68.2260,5.701181,0.0724031,0.58643305,173.6928,01/14.0/2026,2000,g 12.9,4.0
# From MPEC 2023-JA2
C/2019 M4 (TESS),e,65.7049,52.6360,260.3226,28467,0.0000002,0.99967716,0.0000,09/08.6847/2019,2000,g  5.0,4.0
# From MPEC 2023-C45
C/2019 N1 (ATLAS),e,82.5796,13.4883,193.3399,942.6855,0.0000341,0.99819367,0.0000,11/30.4271/2020,2000,g  7.5,4.0
# From MPEC 2023-CD8
A/2019 N2,e,89.3205,276.2248,347.0245,1040,0.0000294,0.99813689,0.0000,08/22.3146/2019,2000,g 12.5,2.0
# From MPEC 2025-W75
C/2019 NJ3 (Lemmon),h,10/22.0356/2020,99.3122,142.4922,246.8777,1.001745,4.362159,2000,12.0,4.0
# From MPC185656
C/2019 O2 (PANSTARRS),e,93.2877,48.2655,129.5644,58.83540,0.0021840,0.83546975,2.2147,01/14.0/2026,2000,g  5.0,4.0
# From MPC182878
C/2019 O3 (Palomar),h,03/07.6315/2021,89.7912,300.4827,60.0799,1.001909,8.820231,2000,3.5,4.0
# From MPEC 2024-EF7
C/2019 Q1 (Lemmon),h,07/22.4912/2020,155.7123,42.4742,56.2414,1.002517,4.999923,2000,8.5,4.0
# From MPC117072
C/2019 Q3 (PANSTARRS),h,08/19.1214/2018,65.5878,151.4603,152.6752,1.000726,7.264079,2000,8.5,4.0
# From MPC117072
P/2019 S2 (PANSTARRS),e,10.4636,93.1794,216.8614,4.748179,0.0952606,0.20470476,240.5749,01/14.0/2026,2000,g 13.5,4.0
# From MPEC 2022-CN4
P/2019 S3 (PANSTARRS),e,8.6945,150.1401,213.1024,3.413531,0.1562782,0.47061567,4.0346,01/14.0/2026,2000,g 18.3,4.0
# From MPEC 2023-N01
A/2019 T1,e,120.7996,6.9195,90.9514,38.68017,0.0040971,0.88952430,7.4782,01/14.0/2026,2000,g 13.0,2.0
# From MPEC 2023-R20
C/2019 T2 (Lemmon),e,111.3438,155.6515,239.3683,2746,0.0000068,0.99903766,0.0000,04/22.2648/2021,2000,g  9.0,4.0
# From MPEC 2023-UR6
C/2019 T3 (ATLAS),e,121.8865,139.5499,112.4924,5806,0.0000022,0.99897480,0.0000,03/05.0061/2021,2000,g  6.8,4.0
# From MPC188408
C/2019 T4 (ATLAS),e,53.6246,199.8800,351.1138,894.1408,0.0000369,0.99526176,0.0000,06/08.7460/2022,2000,g  5.0,4.0
# From MPC118096
P/2019 U4 (PANSTARRS),e,11.6957,199.9947,181.0981,3.517986,0.1493698,0.47562666,344.3826,01/14.0/2026,2000,g 19.0,4.0
# From MPEC 2026-A90
C/2019 U5 (PANSTARRS),e,113.5147,2.5975,181.4458,99591,0.0000000,0.99996360,0.0000,03/29.3075/2023,2000,g  4.5,4.0
# From MPEC 2022-L66
P/2019 V2 (Groeller),e,11.8076,189.1175,335.6598,7.495238,0.0480315,0.33210849,91.9387,01/14.0/2026,2000,g 10.0,4.0
# From MPEC 2023-A50
P/2019 W1 (PANSTARRS),e,23.4635,35.3501,18.9224,4.548429,0.1016043,0.26707384,247.7587,01/14.0/2026,2000,g 12.9,4.0
# From MPEC 2021-P47
P/2019 X1 (Pruyne),e,10.2428,43.6720,37.0478,6.181140,0.0641359,0.30361951,151.6821,01/14.0/2026,2000,g 10.4,4.0
# From MPEC 2020-C98
P/2019 X2 (Pan-STARRS),e,15.8949,250.8235,213.5496,3.633194,0.1423217,0.50050924,316.5477,01/14.0/2026,2000,g 18.0,4.0
# From MPEC 2023-A50
C/2020 A3 (ATLAS),e,146.6146,120.7959,268.2195,3471,0.0000048,0.99834236,0.0000,06/26.0301/2019,2000,g  8.0,4.0
# From MPEC 2023-KD6
P/2020 B4 (Sheppard),e,11.6016,185.9333,342.1309,7.976185,0.0437533,0.19316551,66.3041,01/14.0/2026,2000,g 10.5,4.0
# From MPEC 2025-X35
C/2020 F2 (ATLAS),h,07/12.0366/2022,163.5900,250.2953,48.2239,1.001719,8.813914,2000,4.5,4.0
# From MPEC 2024-UQ8
C/2020 F5 (MASTER),e,52.2424,350.5631,310.5752,162.2772,0.0004768,0.97335078,0.0000,03/15.8895/2021,2000,g  6.5,3.2
# From MPEC 2024-A43
C/2020 F7 (Lemmon),e,93.9932,321.8130,228.0061,590.3646,0.0000687,0.99096103,0.0000,11/14.1323/2021,2000,g  7.0,4.0
# From MPC184409
